{
    "links": {
        "self": "http://www.neowsapp.com/rest/v1/neo/3698523?api_key=iIulBulltgU6a56xZRHN4H3l9WmuAYTsLGpBGhQ2"
    },
    "id": "3698523",
    "neo_reference_id": "3698523",
    "name": "(2014 HY197)",
    "designation": "2014 HY197",
    "nasa_jpl_url": "http://ssd.jpl.nasa.gov/sbdb.cgi?sstr=3698523",
    "absolute_magnitude_h": 28.6,
    "estimated_diameter": {
        "kilometers": {
            "estimated_diameter_min": 0.0050647146,
            "estimated_diameter_max": 0.0113250461
        },
        "meters": {
            "estimated_diameter_min": 5.0647145883,
            "estimated_diameter_max": 11.3250461062
        },
        "miles": {
            "estimated_diameter_min": 0.0031470668,
            "estimated_diameter_max": 0.0070370552
        },
        "feet": {
            "estimated_diameter_min": 16.61651821,
            "estimated_diameter_max": 37.155664267
        }
    },
    "is_potentially_hazardous_asteroid": false,
    "close_approach_data": [
        {
            "close_approach_date": "2014-05-06",
            "close_approach_date_full": "2014-May-06 20:07",
            "epoch_date_close_approach": 1399406820000,
            "relative_velocity": {
                "kilometers_per_second": "4.3026044845",
                "kilometers_per_hour": "15489.3761442752",
                "miles_per_hour": "9624.4959714248"
            },
            "miss_distance": {
                "astronomical": "0.0391203967",
                "lunar": "15.2178343163",
                "kilometers": "5852328.019875029",
                "miles": "3636468.0062882402"
            },
            "orbiting_body": "Earth"
        }
    ],
    "orbital_data": {
        "orbit_id": "6",
        "orbit_determination_date": "2017-04-06 08:40:55",
        "first_observation_date": "2014-04-24",
        "last_observation_date": "2014-04-25",
        "data_arc_in_days": 1,
        "observations_used": 13,
        "orbit_uncertainty": "9",
        "minimum_orbit_intersection": ".0319622",
        "jupiter_tisserand_invariant": "4.626",
        "epoch_osculation": "2456772.5",
        "eccentricity": ".2780280132747834",
        "semi_major_axis": "1.43866555307384",
        "inclination": "2.623061583972835",
        "ascending_node_longitude": "214.9847269317526",
        "orbital_period": "630.2867748974819",
        "perihelion_distance": "1.038676227585853",
        "perihelion_argument": "22.26790886612302",
        "aphelion_distance": "1.838654878561828",
        "perihelion_time": "2456794.067669256840",
        "mean_anomaly": "347.681225052318",
        "mean_motion": ".5711685764921136",
        "equinox": "J2000",
        "orbit_class": {
            "orbit_class_type": "AMO",
            "orbit_class_description": "Near-Earth asteroid orbits similar to that of 1221 Amor",
            "orbit_class_range": "1.017 AU < q (perihelion) < 1.3 AU"
        }
    },
    "is_sentry_object": false
}